{
"type": "FeatureCollection",
"name": "cpcb_comparison",
"crs": { "type": "name", "properties": { "name": "urn:ogc:def:crs:OGC:1.3:CRS84" } },
"features": [
{ "type": "Feature", "properties": { "station_day_id": "alipur_delhi_dpcc_2026-06-30", "date_text": "2026-06-30", "station": "alipur, delhi - dpcc", "city": "Delhi", "state": "Delhi", "latitude": 28.815329, "longitude": 77.15301, "PM25": 45.041666666666657, "PRED_PM25": 37.866684, "PM10": 221.04166666666663, "PRED_PM10": 142.89372, "NO2": 9.8400001525878906, "PRED_NO2": 20.262136, "O3_8H": 18.21125, "PRED_O3_8H": 37.89353, "CPCB_PM25_SUBINDEX": 74.725574712643663, "AEROVISION_PM25_SUBINDEX": 62.60232807027883, "CPCB_PM10_SUBINDEX": 180.75922818791943, "AEROVISION_PM10_SUBINDEX": 128.83542638177039, "CPCB_NO2_SUBINDEX": 12.300000190734863, "AEROVISION_NO2_SUBINDEX": 25.327670574188232, "CPCB_O3_SUBINDEX": 18.21125, "AEROVISION_O3_SUBINDEX": 37.893531799316406, "CPCB_AQI": 180.75922818791943, "AEROVISION_AQI": 128.83542638177039, "CPCB_CATEGORY": "Moderate", "AEROVISION_CATEGORY": "Moderate", "AQI_DIFFERENCE": -51.923801806149072, "AQI_ABS_ERROR": 51.923801806149072 }, "geometry": { "type": "Point", "coordinates": [ 77.15301, 28.815329 ] } },
{ "type": "Feature", "properties": { "station_day_id": "anand_vihar_delhi_dpcc_2026-06-30", "date_text": "2026-06-30", "station": "anand vihar, delhi - dpcc", "city": "Delhi", "state": "Delhi", "latitude": 28.646835, "longitude": 77.316032, "PM25": 63.399166666666666, "PRED_PM25": 66.06678, "PM10": 325.53458333333333, "PRED_PM10": 260.02686, "NO2": 32.008333333333333, "PRED_NO2": 41.04385, "O3_8H": 33.34375, "PRED_O3_8H": 38.441765, "CPCB_PM25_SUBINDEX": 109.19025862068963, "AEROVISION_PM25_SUBINDEX": 118.29693892906452, "CPCB_PM10_SUBINDEX": 275.53458333333333, "AEROVISION_PM10_SUBINDEX": 210.02685546875, "CPCB_NO2_SUBINDEX": 40.010416666666657, "AEROVISION_NO2_SUBINDEX": 51.055093520726913, "CPCB_O3_SUBINDEX": 33.34375, "AEROVISION_O3_SUBINDEX": 38.441764831542969, "CPCB_AQI": 275.53458333333333, "AEROVISION_AQI": 210.02685546875, "CPCB_CATEGORY": "Poor", "AEROVISION_CATEGORY": "Poor", "AQI_DIFFERENCE": -65.50772786458333, "AQI_ABS_ERROR": 65.50772786458333 }, "geometry": { "type": "Point", "coordinates": [ 77.316032, 28.646835 ] } },
{ "type": "Feature", "properties": { "station_day_id": "ashok_vihar_delhi_dpcc_2026-06-30", "date_text": "2026-06-30", "station": "ashok vihar, delhi - dpcc", "city": "Delhi", "state": "Delhi", "latitude": 28.695381, "longitude": 77.181665, "PM25": 39.875, "PRED_PM25": 43.526318, "PM10": 227.5, "PRED_PM10": 148.4747, "NO2": 22.227083333333336, "PRED_NO2": 25.256002, "O3_8H": 17.75, "PRED_O3_8H": 37.04828, "CPCB_PM25_SUBINDEX": 65.995689655172413, "AEROVISION_PM25_SUBINDEX": 72.165157318115234, "CPCB_PM10_SUBINDEX": 185.0503355704698, "AEROVISION_PM10_SUBINDEX": 132.54359323386379, "CPCB_NO2_SUBINDEX": 27.783854166666671, "AEROVISION_NO2_SUBINDEX": 31.57000303268433, "CPCB_O3_SUBINDEX": 17.75, "AEROVISION_O3_SUBINDEX": 37.04827880859375, "CPCB_AQI": 185.0503355704698, "AEROVISION_AQI": 132.54359323386379, "CPCB_CATEGORY": "Moderate", "AEROVISION_CATEGORY": "Moderate", "AQI_DIFFERENCE": -52.50674233660601, "AQI_ABS_ERROR": 52.50674233660601 }, "geometry": { "type": "Point", "coordinates": [ 77.181665, 28.695381 ] } },
{ "type": "Feature", "properties": { "station_day_id": "bawana_delhi_dpcc_2026-06-30", "date_text": "2026-06-30", "station": "bawana, delhi - dpcc", "city": "Delhi", "state": "Delhi", "latitude": 28.7762, "longitude": 77.051074, "PM25": 59.434782608695649, "PRED_PM25": 45.68076, "PM10": 196.375, "PRED_PM10": 147.70506, "NO2": 14.225833333333334, "PRED_NO2": 17.047806, "O3_8H": 8.7675, "PRED_O3_8H": 28.492779, "CPCB_PM25_SUBINDEX": 99.044977511244383, "AEROVISION_PM25_SUBINDEX": 75.805421105746561, "CPCB_PM10_SUBINDEX": 164.36996644295303, "AEROVISION_PM10_SUBINDEX": 132.03222297822069, "CPCB_NO2_SUBINDEX": 17.782291666666666, "AEROVISION_NO2_SUBINDEX": 21.309757232666016, "CPCB_O3_SUBINDEX": 8.7675, "AEROVISION_O3_SUBINDEX": 28.492778778076168, "CPCB_AQI": 164.36996644295303, "AEROVISION_AQI": 132.03222297822069, "CPCB_CATEGORY": "Moderate", "AEROVISION_CATEGORY": "Moderate", "AQI_DIFFERENCE": -32.337743464732341, "AQI_ABS_ERROR": 32.337743464732341 }, "geometry": { "type": "Point", "coordinates": [ 77.051074, 28.7762 ] } },
{ "type": "Feature", "properties": { "station_day_id": "civil_line_jalandhar_ppcb_2026-06-30", "date_text": "2026-06-30", "station": "civil line, jalandhar - ppcb", "city": "Jalandhar", "state": "Punjab", "latitude": 31.326, "longitude": 75.576, "PM25": 47.280416666666667, "PRED_PM25": 40.01921, "PM10": 96.798333333333318, "PRED_PM10": 78.87394, "NO2": 21.095833333333331, "PRED_NO2": 20.368427, "O3_8H": 50.5475, "PRED_O3_8H": 44.475384, "CPCB_PM25_SUBINDEX": 78.508290229885063, "AEROVISION_PM25_SUBINDEX": 66.239356205381199, "CPCB_PM10_SUBINDEX": 96.798333333333318, "AEROVISION_PM10_SUBINDEX": 78.873939514160156, "CPCB_NO2_SUBINDEX": 26.369791666666664, "AEROVISION_NO2_SUBINDEX": 25.46053409576416, "CPCB_O3_SUBINDEX": null, "AEROVISION_O3_SUBINDEX": 44.475383758544922, "CPCB_AQI": 96.798333333333318, "AEROVISION_AQI": 78.873939514160156, "CPCB_CATEGORY": "Satisfactory", "AEROVISION_CATEGORY": "Satisfactory", "AQI_DIFFERENCE": -17.924393819173162, "AQI_ABS_ERROR": 17.924393819173162 }, "geometry": { "type": "Point", "coordinates": [ 75.576, 31.326 ] } },
{ "type": "Feature", "properties": { "station_day_id": "golden_temple_amritsar_ppcb_2026-06-30", "date_text": "2026-06-30", "station": "golden temple, amritsar - ppcb", "city": "Amritsar", "state": "Punjab", "latitude": 31.62, "longitude": 74.876, "PM25": 51.651666666666671, "PRED_PM25": 39.128532, "PM10": 100.71499633789062, "PRED_PM10": 85.74625, "NO2": 14.545000076293944, "PRED_NO2": 45.683067, "O3_8H": 46.71625, "PRED_O3_8H": 47.277744, "CPCB_PM25_SUBINDEX": 85.894195402298863, "AEROVISION_PM25_SUBINDEX": 64.734416830128637, "CPCB_PM10_SUBINDEX": null, "AEROVISION_PM10_SUBINDEX": 85.746246337890625, "CPCB_NO2_SUBINDEX": 18.181250095367428, "AEROVISION_NO2_SUBINDEX": 56.883853814540771, "CPCB_O3_SUBINDEX": 46.71625, "AEROVISION_O3_SUBINDEX": 47.277744293212891, "CPCB_AQI": 85.894195402298863, "AEROVISION_AQI": 85.746246337890625, "CPCB_CATEGORY": "Satisfactory", "AEROVISION_CATEGORY": "Satisfactory", "AQI_DIFFERENCE": -0.14794906440823749, "AQI_ABS_ERROR": 0.14794906440823749 }, "geometry": { "type": "Point", "coordinates": [ 74.876, 31.62 ] } },
{ "type": "Feature", "properties": { "station_day_id": "ito_delhi_cpcb_2026-06-30", "date_text": "2026-06-30", "station": "ito, delhi - cpcb", "city": "Delhi", "state": "Delhi", "latitude": 28.628624, "longitude": 77.24106, "PM25": 44.375416666666666, "PRED_PM25": 39.571243, "PM10": 166.67375183105469, "PRED_PM10": 136.8615, "NO2": 46.212501525878906, "PRED_NO2": 43.234043, "O3_8H": null, "PRED_O3_8H": 45.094574, "CPCB_PM25_SUBINDEX": 73.599841954022992, "AEROVISION_PM25_SUBINDEX": 65.482445552431301, "CPCB_PM10_SUBINDEX": 144.63558007566721, "AEROVISION_PM10_SUBINDEX": 124.82743692078046, "CPCB_NO2_SUBINDEX": 57.549040378668366, "AEROVISION_NO2_SUBINDEX": 53.806874690911712, "CPCB_O3_SUBINDEX": null, "AEROVISION_O3_SUBINDEX": 45.094573974609375, "CPCB_AQI": 144.63558007566721, "AEROVISION_AQI": 124.82743692078046, "CPCB_CATEGORY": "Moderate", "AEROVISION_CATEGORY": "Moderate", "AQI_DIFFERENCE": -19.80814315488675, "AQI_ABS_ERROR": 19.80814315488675 }, "geometry": { "type": "Point", "coordinates": [ 77.24106, 28.628624 ] } },
{ "type": "Feature", "properties": { "station_day_id": "mandir_marg_delhi_dpcc_2026-06-30", "date_text": "2026-06-30", "station": "mandir marg, delhi - dpcc", "city": "Delhi", "state": "Delhi", "latitude": 28.636429, "longitude": 77.201067, "PM25": 34.826086956521742, "PRED_PM25": 35.334244, "PM10": 217.5, "PRED_PM10": 147.67435, "NO2": 16.512500762939453, "PRED_NO2": 25.7713, "O3_8H": 31.34, "PRED_O3_8H": 46.82337, "CPCB_PM25_SUBINDEX": 57.464767616191907, "AEROVISION_PM25_SUBINDEX": 58.323377411941003, "CPCB_PM10_SUBINDEX": 178.40604026845637, "AEROVISION_PM10_SUBINDEX": 132.01181439905358, "CPCB_NO2_SUBINDEX": 20.64062595367432, "AEROVISION_NO2_SUBINDEX": 32.214124202728271, "CPCB_O3_SUBINDEX": 31.34, "AEROVISION_O3_SUBINDEX": 46.823371887207031, "CPCB_AQI": 178.40604026845637, "AEROVISION_AQI": 132.01181439905358, "CPCB_CATEGORY": "Moderate", "AEROVISION_CATEGORY": "Moderate", "AQI_DIFFERENCE": -46.394225869402788, "AQI_ABS_ERROR": 46.394225869402788 }, "geometry": { "type": "Point", "coordinates": [ 77.201067, 28.636429 ] } },
{ "type": "Feature", "properties": { "station_day_id": "model_town_patiala_ppcb_2026-06-30", "date_text": "2026-06-30", "station": "model town, patiala - ppcb", "city": "Patiala", "state": "Punjab", "latitude": 30.3398, "longitude": 76.3869, "PM25": 42.570999145507812, "PRED_PM25": 32.284603, "PM10": 150.27954545454546, "PRED_PM10": 96.8459, "NO2": 14.0, "PRED_NO2": 15.191966, "O3_8H": 56.878571428571433, "PRED_O3_8H": 37.744804, "CPCB_PM25_SUBINDEX": 70.550998556202856, "AEROVISION_PM25_SUBINDEX": 53.170536304342335, "CPCB_PM10_SUBINDEX": 133.74278523489932, "AEROVISION_PM10_SUBINDEX": 96.845901489257798, "CPCB_NO2_SUBINDEX": 17.5, "AEROVISION_NO2_SUBINDEX": 18.989957571029663, "CPCB_O3_SUBINDEX": 56.878571428571433, "AEROVISION_O3_SUBINDEX": 37.744804382324219, "CPCB_AQI": 133.74278523489932, "AEROVISION_AQI": 96.845901489257798, "CPCB_CATEGORY": "Moderate", "AEROVISION_CATEGORY": "Satisfactory", "AQI_DIFFERENCE": -36.896883745641503, "AQI_ABS_ERROR": 36.896883745641503 }, "geometry": { "type": "Point", "coordinates": [ 76.3869, 30.3398 ] } },
{ "type": "Feature", "properties": { "station_day_id": "mundka_delhi_dpcc_2026-06-30", "date_text": "2026-06-30", "station": "mundka, delhi - dpcc", "city": "Delhi", "state": "Delhi", "latitude": 28.684678, "longitude": 77.076574, "PM25": 46.958333333333336, "PRED_PM25": 52.94047, "PM10": 263.08333333333331, "PRED_PM10": 159.14764, "NO2": 93.089996337890625, "PRED_NO2": 77.913765, "O3_8H": 13.4075, "PRED_O3_8H": 23.324673, "CPCB_PM25_SUBINDEX": 77.964080459770116, "AEROVISION_PM25_SUBINDEX": 88.071831407218141, "CPCB_PM10_SUBINDEX": 213.08333333333329, "AEROVISION_PM10_SUBINDEX": 139.63501181378462, "CPCB_NO2_SUBINDEX": 113.08999633789062, "AEROVISION_NO2_SUBINDEX": 97.378832890437195, "CPCB_O3_SUBINDEX": 13.4075, "AEROVISION_O3_SUBINDEX": 23.324672698974609, "CPCB_AQI": 213.08333333333329, "AEROVISION_AQI": 139.63501181378462, "CPCB_CATEGORY": "Poor", "AEROVISION_CATEGORY": "Moderate", "AQI_DIFFERENCE": -73.448321519548699, "AQI_ABS_ERROR": 73.448321519548699 }, "geometry": { "type": "Point", "coordinates": [ 77.076574, 28.684678 ] } },
{ "type": "Feature", "properties": { "station_day_id": "murthal_sonipat_hspcb_2026-06-30", "date_text": "2026-06-30", "station": "murthal, sonipat - hspcb", "city": "Sonipat", "state": "Haryana", "latitude": 29.0272, "longitude": 77.0621, "PM25": 175.30375, "PRED_PM25": 47.476574, "PM10": 279.46166666666664, "PRED_PM10": 134.76485, "NO2": 6.1483333333333334, "PRED_NO2": 13.768249, "O3_8H": 95.74, "PRED_O3_8H": 50.830647, "CPCB_PM25_SUBINDEX": 342.67497093023258, "AEROVISION_PM25_SUBINDEX": 78.83972838829304, "CPCB_PM10_SUBINDEX": 229.46166666666664, "AEROVISION_PM10_SUBINDEX": 123.43436129781225, "CPCB_NO2_SUBINDEX": 7.6854166666666668, "AEROVISION_NO2_SUBINDEX": 17.210310697555542, "CPCB_O3_SUBINDEX": 95.74, "AEROVISION_O3_SUBINDEX": null, "CPCB_AQI": 342.67497093023258, "AEROVISION_AQI": 123.43436129781225, "CPCB_CATEGORY": "Very Poor", "AEROVISION_CATEGORY": "Moderate", "AQI_DIFFERENCE": -219.24060963242036, "AQI_ABS_ERROR": 219.24060963242036 }, "geometry": { "type": "Point", "coordinates": [ 77.0621, 29.0272 ] } },
{ "type": "Feature", "properties": { "station_day_id": "najafgarh_delhi_dpcc_2026-06-30", "date_text": "2026-06-30", "station": "najafgarh, delhi - dpcc", "city": "Delhi", "state": "Delhi", "latitude": 28.570173, "longitude": 76.933762, "PM25": 37.375, "PRED_PM25": 34.28595, "PM10": 207.66666666666663, "PRED_PM10": 140.95107, "NO2": 23.08625, "PRED_NO2": 22.992008, "O3_8H": 26.58375, "PRED_O3_8H": 41.533333, "CPCB_PM25_SUBINDEX": 61.771551724137929, "AEROVISION_PM25_SUBINDEX": 56.55212191877694, "CPCB_PM10_SUBINDEX": 171.8724832214765, "AEROVISION_PM10_SUBINDEX": 127.544667391169, "CPCB_NO2_SUBINDEX": 28.8578125, "AEROVISION_NO2_SUBINDEX": 28.740010261535645, "CPCB_O3_SUBINDEX": 26.58375, "AEROVISION_O3_SUBINDEX": 41.533332824707031, "CPCB_AQI": 171.8724832214765, "AEROVISION_AQI": 127.544667391169, "CPCB_CATEGORY": "Moderate", "AEROVISION_CATEGORY": "Moderate", "AQI_DIFFERENCE": -44.327815830307522, "AQI_ABS_ERROR": 44.327815830307522 }, "geometry": { "type": "Point", "coordinates": [ 76.933762, 28.570173 ] } },
{ "type": "Feature", "properties": { "station_day_id": "narela_delhi_dpcc_2026-06-30", "date_text": "2026-06-30", "station": "narela, delhi - dpcc", "city": "Delhi", "state": "Delhi", "latitude": 28.822836, "longitude": 77.101981, "PM25": 66.239583333333329, "PRED_PM25": 48.089184, "PM10": 221.80208333333329, "PRED_PM10": 147.45825, "NO2": 18.357500076293945, "PRED_NO2": 15.537627, "O3_8H": 10.105, "PRED_O3_8H": 22.530512, "CPCB_PM25_SUBINDEX": 118.88685344827584, "AEROVISION_PM25_SUBINDEX": 79.874827812457909, "CPCB_PM10_SUBINDEX": 181.26447147651004, "AEROVISION_PM10_SUBINDEX": 131.86823451919042, "CPCB_NO2_SUBINDEX": 22.946875095367432, "AEROVISION_NO2_SUBINDEX": 19.422034025192261, "CPCB_O3_SUBINDEX": 10.105, "AEROVISION_O3_SUBINDEX": 22.530511856079102, "CPCB_AQI": 181.26447147651004, "AEROVISION_AQI": 131.86823451919042, "CPCB_CATEGORY": "Moderate", "AEROVISION_CATEGORY": "Moderate", "AQI_DIFFERENCE": -49.396236957319616, "AQI_ABS_ERROR": 49.396236957319616 }, "geometry": { "type": "Point", "coordinates": [ 77.101981, 28.822836 ] } },
{ "type": "Feature", "properties": { "station_day_id": "new_industrial_town_faridabad_hspcb_2026-06-30", "date_text": "2026-06-30", "station": "new industrial town, faridabad - hspcb", "city": "Faridabad", "state": "Haryana", "latitude": 28.39072, "longitude": 77.30059, "PM25": 71.120416666666671, "PRED_PM25": 95.30292, "PM10": 118.0925, "PRED_PM10": 144.05579, "NO2": 19.969999313354489, "PRED_NO2": 22.018404, "O3_8H": 14.21625, "PRED_O3_8H": 27.983217, "CPCB_PM25_SUBINDEX": 135.54900862068968, "AEROVISION_PM25_SUBINDEX": 215.68927001953125, "CPCB_PM10_SUBINDEX": 112.35676174496643, "AEROVISION_PM10_SUBINDEX": 129.60753575267407, "CPCB_NO2_SUBINDEX": 24.962499141693112, "AEROVISION_NO2_SUBINDEX": 27.52300500869751, "CPCB_O3_SUBINDEX": 14.21625, "AEROVISION_O3_SUBINDEX": 27.983217239379883, "CPCB_AQI": 135.54900862068968, "AEROVISION_AQI": 215.68927001953125, "CPCB_CATEGORY": "Moderate", "AEROVISION_CATEGORY": "Poor", "AQI_DIFFERENCE": 80.140261398841574, "AQI_ABS_ERROR": 80.140261398841574 }, "geometry": { "type": "Point", "coordinates": [ 77.30059, 28.39072 ] } },
{ "type": "Feature", "properties": { "station_day_id": "nise_gwal_pahari_gurugram_iitm_2026-06-30", "date_text": "2026-06-30", "station": "nise gwal pahari, gurugram - iitm", "city": "Gurugram", "state": "Haryana", "latitude": 28.42501, "longitude": 77.14819, "PM25": 42.842498779296882, "PRED_PM25": 52.127197, "PM10": 208.12458333333333, "PRED_PM10": 164.64795, "NO2": 5.8254166666666665, "PRED_NO2": 14.356844, "O3_8H": 61.01125, "PRED_O3_8H": 77.19288, "CPCB_PM25_SUBINDEX": 71.009739316743008, "AEROVISION_PM25_SUBINDEX": 86.697678138469826, "CPCB_PM10_SUBINDEX": 172.1767365771812, "AEROVISION_PM10_SUBINDEX": 143.28957699769296, "CPCB_NO2_SUBINDEX": 7.2817708333333329, "AEROVISION_NO2_SUBINDEX": 17.946054935455322, "CPCB_O3_SUBINDEX": 61.01125, "AEROVISION_O3_SUBINDEX": 77.192878723144531, "CPCB_AQI": 172.1767365771812, "AEROVISION_AQI": 143.28957699769296, "CPCB_CATEGORY": "Moderate", "AEROVISION_CATEGORY": "Moderate", "AQI_DIFFERENCE": -28.887159579488241, "AQI_ABS_ERROR": 28.887159579488241 }, "geometry": { "type": "Point", "coordinates": [ 77.14819, 28.42501 ] } },
{ "type": "Feature", "properties": { "station_day_id": "patti_mehar_ambala_hspcb_2026-06-30", "date_text": "2026-06-30", "station": "patti mehar, ambala - hspcb", "city": "Ambala", "state": "Haryana", "latitude": 30.3776, "longitude": 76.7769, "PM25": 56.424999237060547, "PRED_PM25": 38.650032, "PM10": 178.9491304347826, "PRED_PM10": 89.75116, "NO2": 23.832083333333333, "PRED_NO2": 21.022457, "O3_8H": 15.03375, "PRED_O3_8H": 31.41304, "CPCB_PM25_SUBINDEX": 93.959481469516106, "AEROVISION_PM25_SUBINDEX": 63.925916211358434, "CPCB_PM10_SUBINDEX": 152.79170411438577, "AEROVISION_PM10_SUBINDEX": 89.75115966796875, "CPCB_NO2_SUBINDEX": 29.790104166666666, "AEROVISION_NO2_SUBINDEX": 26.278071403503414, "CPCB_O3_SUBINDEX": 15.03375, "AEROVISION_O3_SUBINDEX": 31.413040161132809, "CPCB_AQI": 152.79170411438577, "AEROVISION_AQI": 89.75115966796875, "CPCB_CATEGORY": "Moderate", "AEROVISION_CATEGORY": "Satisfactory", "AQI_DIFFERENCE": -63.040544446417016, "AQI_ABS_ERROR": 63.040544446417016 }, "geometry": { "type": "Point", "coordinates": [ 76.7769, 30.3776 ] } },
{ "type": "Feature", "properties": { "station_day_id": "punjab_agricultural_university_ludhiana_ppcb_2026-06-30", "date_text": "2026-06-30", "station": "punjab agricultural university, ludhiana - ppcb", "city": "Ludhiana", "state": "Punjab", "latitude": 30.9028, "longitude": 75.8086, "PM25": 53.320416666666667, "PRED_PM25": 34.306717, "PM10": 106.63541666666669, "PRED_PM10": 88.96782, "NO2": 32.680833333333332, "PRED_NO2": 43.19095, "O3_8H": 66.94625, "PRED_O3_8H": 56.44997, "CPCB_PM25_SUBINDEX": 88.713807471264374, "AEROVISION_PM25_SUBINDEX": 56.58721134580415, "CPCB_PM10_SUBINDEX": 104.74433724832215, "AEROVISION_PM10_SUBINDEX": 88.967819213867188, "CPCB_NO2_SUBINDEX": 40.851041666666667, "AEROVISION_NO2_SUBINDEX": 53.752730149489182, "CPCB_O3_SUBINDEX": 66.94625, "AEROVISION_O3_SUBINDEX": 56.449970245361328, "CPCB_AQI": 104.74433724832215, "AEROVISION_AQI": 88.967819213867188, "CPCB_CATEGORY": "Moderate", "AEROVISION_CATEGORY": "Satisfactory", "AQI_DIFFERENCE": -15.776518034454966, "AQI_ABS_ERROR": 15.776518034454966 }, "geometry": { "type": "Point", "coordinates": [ 75.8086, 30.9028 ] } },
{ "type": "Feature", "properties": { "station_day_id": "punjabi_bagh_delhi_dpcc_2026-06-30", "date_text": "2026-06-30", "station": "punjabi bagh, delhi - dpcc", "city": "Delhi", "state": "Delhi", "latitude": 28.674045, "longitude": 77.131023, "PM25": 66.239583333333329, "PRED_PM25": 48.954838, "PM10": 221.80208333333329, "PRED_PM10": 155.85475, "NO2": 18.357500076293945, "PRED_NO2": 18.59101, "O3_8H": 10.105, "PRED_O3_8H": 23.606821, "CPCB_PM25_SUBINDEX": 118.88685344827584, "AEROVISION_PM25_SUBINDEX": 81.337484557053131, "CPCB_PM10_SUBINDEX": 181.26447147651004, "AEROVISION_PM10_SUBINDEX": 137.44711682620465, "CPCB_NO2_SUBINDEX": 22.946875095367432, "AEROVISION_NO2_SUBINDEX": 23.238761425018311, "CPCB_O3_SUBINDEX": 10.105, "AEROVISION_O3_SUBINDEX": 23.606821060180664, "CPCB_AQI": 181.26447147651004, "AEROVISION_AQI": 137.44711682620465, "CPCB_CATEGORY": "Moderate", "AEROVISION_CATEGORY": "Moderate", "AQI_DIFFERENCE": -43.81735465030539, "AQI_ABS_ERROR": 43.81735465030539 }, "geometry": { "type": "Point", "coordinates": [ 77.131023, 28.674045 ] } },
{ "type": "Feature", "properties": { "station_day_id": "r_k_puram_delhi_dpcc_2026-06-30", "date_text": "2026-06-30", "station": "r k puram, delhi - dpcc", "city": "Delhi", "state": "Delhi", "latitude": 28.563262, "longitude": 77.186937, "PM25": 49.333333333333336, "PRED_PM25": 48.845203, "PM10": 222.91666666666663, "PRED_PM10": 155.7775, "NO2": 28.290833333333332, "PRED_NO2": 34.886765, "O3_8H": 36.11875, "PRED_O3_8H": 35.927017, "CPCB_PM25_SUBINDEX": 81.977011494252878, "AEROVISION_PM25_SUBINDEX": 81.15224022700869, "CPCB_PM10_SUBINDEX": 182.00503355704691, "AEROVISION_PM10_SUBINDEX": 137.39578615739043, "CPCB_NO2_SUBINDEX": 35.363541666666663, "AEROVISION_NO2_SUBINDEX": 43.608455657958977, "CPCB_O3_SUBINDEX": 36.11875, "AEROVISION_O3_SUBINDEX": 35.927017211914062, "CPCB_AQI": 182.00503355704691, "AEROVISION_AQI": 137.39578615739043, "CPCB_CATEGORY": "Moderate", "AEROVISION_CATEGORY": "Moderate", "AQI_DIFFERENCE": -44.60924739965651, "AQI_ABS_ERROR": 44.60924739965651 }, "geometry": { "type": "Point", "coordinates": [ 77.186937, 28.563262 ] } },
{ "type": "Feature", "properties": { "station_day_id": "rimt_university_mandi_gobindgarh_ppcb_2026-06-30", "date_text": "2026-06-30", "station": "rimt university, mandi gobindgarh - ppcb", "city": "Mandi Gobindgarh", "state": "Punjab", "latitude": 30.651, "longitude": 76.293, "PM25": 32.279998779296875, "PRED_PM25": 32.41655, "PM10": 90.309997558593764, "PRED_PM10": 80.86523, "NO2": 19.799999237060547, "PRED_NO2": 19.672432, "O3_8H": 38.83, "PRED_O3_8H": 38.88626, "CPCB_PM25_SUBINDEX": 53.162756558122304, "AEROVISION_PM25_SUBINDEX": 53.393480498215247, "CPCB_PM10_SUBINDEX": 90.309997558593764, "AEROVISION_PM10_SUBINDEX": 80.865226745605469, "CPCB_NO2_SUBINDEX": 24.749999046325684, "AEROVISION_NO2_SUBINDEX": 24.590539932250977, "CPCB_O3_SUBINDEX": 38.83, "AEROVISION_O3_SUBINDEX": 38.886260986328125, "CPCB_AQI": 90.309997558593764, "AEROVISION_AQI": 80.865226745605469, "CPCB_CATEGORY": "Satisfactory", "AEROVISION_CATEGORY": "Satisfactory", "AQI_DIFFERENCE": -9.4447708129882955, "AQI_ABS_ERROR": 9.4447708129882955 }, "geometry": { "type": "Point", "coordinates": [ 76.293, 30.651 ] } },
{ "type": "Feature", "properties": { "station_day_id": "rohini_delhi_dpcc_2026-06-30", "date_text": "2026-06-30", "station": "rohini, delhi - dpcc", "city": "Delhi", "state": "Delhi", "latitude": 28.73282, "longitude": 77.11992, "PM25": 66.239583333333329, "PRED_PM25": 48.438145, "PM10": 221.80208333333329, "PRED_PM10": 150.80304, "NO2": 18.357500076293945, "PRED_NO2": 18.454306, "O3_8H": 10.105, "PRED_O3_8H": 25.175362, "CPCB_PM25_SUBINDEX": 118.88685344827584, "AEROVISION_PM25_SUBINDEX": 80.464451362346779, "CPCB_PM10_SUBINDEX": 181.26447147651004, "AEROVISION_PM10_SUBINDEX": 134.09061017132444, "CPCB_NO2_SUBINDEX": 22.946875095367432, "AEROVISION_NO2_SUBINDEX": 23.067882061004639, "CPCB_O3_SUBINDEX": 10.105, "AEROVISION_O3_SUBINDEX": 25.175361633300781, "CPCB_AQI": 181.26447147651004, "AEROVISION_AQI": 134.09061017132444, "CPCB_CATEGORY": "Moderate", "AEROVISION_CATEGORY": "Moderate", "AQI_DIFFERENCE": -47.173861305185603, "AQI_ABS_ERROR": 47.173861305185603 }, "geometry": { "type": "Point", "coordinates": [ 77.11992, 28.73282 ] } },
{ "type": "Feature", "properties": { "station_day_id": "sector_11_faridabad_hspcb_2026-06-30", "date_text": "2026-06-30", "station": "sector 11, faridabad - hspcb", "city": "Faridabad", "state": "Haryana", "latitude": 28.37606, "longitude": 77.31574, "PM25": 189.60499572753903, "PRED_PM25": 98.66538, "PM10": null, "PRED_PM10": 154.20784, "NO2": 25.010833333333331, "PRED_NO2": 25.19211, "O3_8H": 25.06625, "PRED_O3_8H": 23.015604, "CPCB_PM25_SUBINDEX": 353.65034555834399, "AEROVISION_PM25_SUBINDEX": 227.16802952207368, "CPCB_PM10_SUBINDEX": null, "AEROVISION_PM10_SUBINDEX": 136.3528601115182, "CPCB_NO2_SUBINDEX": 31.263541666666661, "AEROVISION_NO2_SUBINDEX": 31.490137577056885, "CPCB_O3_SUBINDEX": 25.06625, "AEROVISION_O3_SUBINDEX": 23.015604019165039, "CPCB_AQI": 353.65034555834399, "AEROVISION_AQI": 227.16802952207368, "CPCB_CATEGORY": "Very Poor", "AEROVISION_CATEGORY": "Poor", "AQI_DIFFERENCE": -126.48231603627023, "AQI_ABS_ERROR": 126.48231603627023 }, "geometry": { "type": "Point", "coordinates": [ 77.31574, 28.37606 ] } },
{ "type": "Feature", "properties": { "station_day_id": "sector_30_faridabad_hspcb_2026-06-30", "date_text": "2026-06-30", "station": "sector 30, faridabad - hspcb", "city": "Faridabad", "state": "Haryana", "latitude": 28.450124, "longitude": 77.3085, "PM25": 72.872083333333336, "PRED_PM25": 66.370804, "PM10": 155.36166666666665, "PRED_PM10": 142.17567, "NO2": 30.077916666666667, "PRED_NO2": 29.85334, "O3_8H": 24.31375, "PRED_O3_8H": 25.941948, "CPCB_PM25_SUBINDEX": 141.52883620689656, "AEROVISION_PM25_SUBINDEX": 119.33481308509565, "CPCB_PM10_SUBINDEX": 137.11949664429528, "AEROVISION_PM10_SUBINDEX": 128.3583340228804, "CPCB_NO2_SUBINDEX": 37.597395833333337, "AEROVISION_NO2_SUBINDEX": 37.316675186157227, "CPCB_O3_SUBINDEX": 24.31375, "AEROVISION_O3_SUBINDEX": 25.941947937011719, "CPCB_AQI": 141.52883620689656, "AEROVISION_AQI": 128.3583340228804, "CPCB_CATEGORY": "Moderate", "AEROVISION_CATEGORY": "Moderate", "AQI_DIFFERENCE": -13.170502184016158, "AQI_ABS_ERROR": 13.170502184016158 }, "geometry": { "type": "Point", "coordinates": [ 77.3085, 28.450124 ] } },
{ "type": "Feature", "properties": { "station_day_id": "teri_gram_gurugram_hspcb_2026-06-30", "date_text": "2026-06-30", "station": "teri gram, gurugram - hspcb", "city": "Gurugram", "state": "Haryana", "latitude": 28.423, "longitude": 77.1465, "PM25": 121.66899871826172, "PRED_PM25": 63.537807, "PM10": 260.01449584960938, "PRED_PM10": 156.04887, "NO2": 27.970833333333331, "PRED_NO2": 40.49391, "O3_8H": 28.31375, "PRED_O3_8H": 44.95481, "CPCB_PM25_SUBINDEX": 301.51341762099162, "AEROVISION_PM25_SUBINDEX": 109.66354962052969, "CPCB_PM10_SUBINDEX": 210.01449584960935, "AEROVISION_PM10_SUBINDEX": 137.57609742439834, "CPCB_NO2_SUBINDEX": 34.963541666666664, "AEROVISION_NO2_SUBINDEX": null, "CPCB_O3_SUBINDEX": 28.31375, "AEROVISION_O3_SUBINDEX": 44.954811096191406, "CPCB_AQI": 301.51341762099162, "AEROVISION_AQI": 137.57609742439834, "CPCB_CATEGORY": "Very Poor", "AEROVISION_CATEGORY": "Moderate", "AQI_DIFFERENCE": -163.93732019659322, "AQI_ABS_ERROR": 163.93732019659322 }, "geometry": { "type": "Point", "coordinates": [ 77.1465, 28.423 ] } },
{ "type": "Feature", "properties": { "station_day_id": "vikas_sadan_gurugram_hspcb_2026-06-30", "date_text": "2026-06-30", "station": "vikas sadan, gurugram - hspcb", "city": "Gurugram", "state": "Haryana", "latitude": 28.45, "longitude": 77.026, "PM25": 207.01777777777767, "PRED_PM25": 65.17726, "PM10": 345.10166666666669, "PRED_PM10": 183.75014, "NO2": null, "PRED_NO2": 20.68049, "O3_8H": 34.18375, "PRED_O3_8H": 26.888586, "CPCB_PM25_SUBINDEX": 367.01364341085264, "AEROVISION_PM25_SUBINDEX": 115.26030599659887, "CPCB_PM10_SUBINDEX": 295.10166666666669, "AEROVISION_PM10_SUBINDEX": 155.9816348696715, "CPCB_NO2_SUBINDEX": null, "AEROVISION_NO2_SUBINDEX": 25.850613117218018, "CPCB_O3_SUBINDEX": 34.18375, "AEROVISION_O3_SUBINDEX": 26.888586044311523, "CPCB_AQI": 367.01364341085264, "AEROVISION_AQI": 155.9816348696715, "CPCB_CATEGORY": "Very Poor", "AEROVISION_CATEGORY": "Moderate", "AQI_DIFFERENCE": -211.03200854118117, "AQI_ABS_ERROR": 211.03200854118117 }, "geometry": { "type": "Point", "coordinates": [ 77.026, 28.45 ] } }
]
}
